NORAD_CAT_ID,OBJECT_NAME,OBJECT_TYPE,EPOCH,MEAN_MOTION,ECCENTRICITY,INCLINATION,RA_OF_ASC_NODE,ARG_OF_PERICENTER,MEAN_ANOMALY,BSTAR,MEAN_MOTION_DOT,MEAN_MOTION_DDOT,TLE_LINE0,TLE_LINE1,TLE_LINE2,SEMIMAJOR_AXIS,PERIOD,APOGEE,PERIGEE,DECAYED
55933.0,STARLINK-5852,PAYLOAD,2024-04-23 13:42:04,14.98335021,0.0002707,70.0018,211.9829,265.1332,94.9518,0.00015466,1.753e-05,0.0,0 STARLINK-5852,1 55933U 23037V   24114.57088521  .00001753  00000-0  15466-3 0  9999,2 55933  70.0018 211.9829 0002707 265.1332  94.9518 14.98335021 61350,6950.177,96.107,573.924,570.161,0.0
55933.0,STARLINK-5852,PAYLOAD,2024-04-23 16:54:20,14.98342435,0.0003154,70.0012,211.6482,265.539,94.5409,0.0002269,2.616e-05,0.0,0 STARLINK-5852,1 55933U 23037V   24114.70439930  .00002616  00000-0  22690-3 0  9994,2 55933  70.0012 211.6482 0003154 265.5390  94.5409 14.98342435 61375,6950.154,96.106,574.212,569.827,0.0
55933.0,STARLINK-5852,PAYLOAD,2024-04-24 05:43:25,14.98325667,0.000342,70.0016,210.2979,266.4166,93.6602,-3.7851e-05,-5.45e-06,0.0,0 STARLINK-5852,1 55933U 23037V   24115.23849376 -.00000545  00000-0 -37851-4 0  9999,2 55933  70.0016 210.2979 0003420 266.4166  93.6602 14.98325667 61791,6950.206,96.107,574.448,569.694,0.0
55933.0,STARLINK-5852,PAYLOAD,2024-04-24 13:44:05,14.98330608,0.0002869,70.0015,209.457,260.655,99.4285,4.1417e-05,4.01e-06,0.0,0 STARLINK-5852,1 55933U 23037V   24115.57228894  .00000401  00000-0  41417-4 0  9994,2 55933  70.0015 209.4570 0002869 260.6550  99.4285 14.98330608 61507,6950.191,96.107,574.05,570.062,0.0
55933.0,STARLINK-5852,PAYLOAD,2024-04-24 15:20:13,14.98336517,0.0003106,70.0015,209.2883,271.871,88.2094,9.8937e-05,1.088e-05,0.0,0 STARLINK-5852,1 55933U 23037V   24115.63904418  .00001088  00000-0  98937-4 0  9995,2 55933  70.0015 209.2883 0003106 271.8710  88.2094 14.98336517 61856,6950.173,96.107,574.196,569.879,0.0
55933.0,STARLINK-5852,PAYLOAD,2024-04-25 12:09:58,14.98331016,0.0003089,70.0012,207.1016,260.3033,99.7777,6.8766e-07,-8.5e-07,0.0,0 STARLINK-5852,1 55933U 23037V   24116.50692682 -.00000085  00000-0  68766-6 0  9995,2 55933  70.0012 207.1016 0003089 260.3033  99.7777 14.98331016 61987,6950.19,96.107,574.202,569.908,0.0
55933.0,STARLINK-5852,PAYLOAD,2024-04-25 13:46:06,14.98331764,0.0003007,70.0017,206.9343,258.9706,101.1115,1.4461e-05,8e-07,0.0,0 STARLINK-5852,1 55933U 23037V   24116.57368606  .00000080  00000-0  14461-4 0  9993,2 55933  70.0017 206.9343 0003007 258.9706 101.1115 14.98331764 61650,6950.187,96.107,574.142,569.963,0.0
55933.0,STARLINK-5852,PAYLOAD,2024-04-25 15:22:14,14.98339174,0.0002981,70.001,206.7638,266.3199,93.7619,9.3126e-05,1.019e-05,0.0,0 STARLINK-5852,1 55933U 23037V   24116.64044018  .00001019  00000-0  93126-4 0  9997,2 55933  70.0010 206.7638 0002981 266.3199  93.7619 14.98339174 62005,6950.165,96.106,574.101,569.958,0.0
55933.0,STARLINK-5852,PAYLOAD,2024-04-26 13:48:06,14.98342098,0.0003036,70.0009,204.4068,265.836,94.2452,0.00018925,2.167e-05,0.0,0 STARLINK-5852,1 55933U 23037V   24117.57507244  .00002167  00000-0  18925-3 0  9993,2 55933  70.0009 204.4068 0003036 265.8360  94.2452 14.98342098 61808,6950.155,96.106,574.131,569.91,0.0
55933.0,STARLINK-5852,PAYLOAD,2024-04-26 15:24:14,14.98343331,0.0003085,70.001,204.2383,262.6619,97.419,0.00023581,2.723e-05,0.0,0 STARLINK-5852,1 55933U 23037V   24117.64183047  .00002723  00000-0  23581-3 0  9994,2 55933  70.0010 204.2383 0003085 262.6619  97.4190 14.98343331 62158,6950.152,96.106,574.161,569.873,0.0
55933.0,STARLINK-5852,PAYLOAD,2024-04-27 12:13:59,14.98331965,0.0002625,70.0018,202.0513,248.5686,111.5193,0.00015571,1.766e-05,0.0,0 STARLINK-5852,1 55933U 23037V   24118.50971654  .00001766  00000-0  15571-3 0  9995,2 55933  70.0018 202.0513 0002625 248.5686 111.5193 14.98331965 62288,6950.187,96.107,573.876,570.227,0.0
55933.0,STARLINK-5852,PAYLOAD,2024-04-27 13:50:07,14.98336736,0.0002717,70.0017,201.8838,258.713,101.3724,0.00011168,1.24e-05,0.0,0 STARLINK-5852,1 55933U 23037V   24118.57647437  .00001240  00000-0  11168-3 0  9996,2 55933  70.0017 201.8838 0002717 258.7130 101.3724 14.98336736 61954,6950.172,96.107,573.925,570.149,0.0
55933.0,STARLINK-5852,PAYLOAD,2024-04-27 15:26:15,14.98335647,0.0002702,70.0018,201.7157,248.6554,111.4317,0.00017322,1.975e-05,0.0,0 STARLINK-5852,1 55933U 23037V   24118.64323324  .00001975  00000-0  17322-3 0  9993,2 55933  70.0018 201.7157 0002702 248.6554 111.4317 14.98335647 61961,6950.175,96.107,573.918,570.162,0.0
55933.0,STARLINK-5852,PAYLOAD,2024-04-28 12:16:01,14.98319313,0.0002828,70.001,199.5267,261.2889,98.795,-0.00020636,-2.554e-05,0.0,0 STARLINK-5852,1 55933U 23037V   24119.51113192 -.00002554  00000-0 -20636-3 0  9998,2 55933  70.0010 199.5267 0002828 261.2889  98.7950 14.98319313 62435,6950.226,96.108,574.056,570.125,0.0
55933.0,STARLINK-5852,PAYLOAD,2024-04-28 13:52:09,14.9831907,0.0003007,70.0004,199.3591,262.1791,97.9027,-0.00021073,-2.606e-05,0.0,0 STARLINK-5852,1 55933U 23037V   24119.57789269 -.00002606  00000-0 -21073-3 0  9992,2 55933  70.0004 199.3591 0003007 262.1791  97.9027 14.98319070 62108,6950.227,96.108,574.182,570.002,0.0
55933.0,STARLINK-5852,PAYLOAD,2024-04-28 15:28:17,14.98320502,0.0003015,70.0004,199.1904,265.7629,94.3185,-0.00022295,-2.751e-05,0.0,0 STARLINK-5852,1 55933U 23037V   24119.64465208 -.00002751  00000-0 -22295-3 0  9992,2 55933  70.0004 199.1904 0003015 265.7629  94.3185 14.98320502 62111,6950.222,96.108,574.183,569.992,0.0
55933.0,STARLINK-5852,PAYLOAD,2024-04-29 04:17:22,14.98326213,0.0003064,70.0004,197.8431,265.6642,94.4167,-4.8835e-05,-6.76e-06,0.0,0 STARLINK-5852,1 55933U 23037V   24120.17872708 -.00000676  00000-0 -48835-4 0  9992,2 55933  70.0004 197.8431 0003064 265.6642  94.4167 14.98326213 62531,6950.205,96.107,574.199,569.94,0.0
55933.0,STARLINK-5852,PAYLOAD,2024-04-29 13:54:09,14.98331529,0.0003027,70.0003,196.8341,262.5436,97.5379,6.1768e-05,6.44e-06,0.0,0 STARLINK-5852,1 55933U 23037V   24120.57928234  .00000644  00000-0  61768-4 0  9995,2 55933  70.0003 196.8341 0003027 262.5436  97.5379 14.98331529 62259,6950.188,96.107,574.157,569.949,0.0
55933.0,STARLINK-5852,PAYLOAD,2024-04-29 21:54:50,14.98334765,0.0003067,70.0004,195.9921,259.1927,100.8887,6.1269e-05,6.38e-06,0.0,0 STARLINK-5852,1 55933U 23037V   24120.91307977  .00000638  00000-0  61269-4 0  9997,2 55933  70.0004 195.9921 0003067 259.1927 100.8887 14.98334765 62308,6950.178,96.107,574.175,569.912,0.0
55933.0,STARLINK-5852,PAYLOAD,2024-04-30 13:56:10,14.98339659,0.0003126,70.001,194.3085,269.0204,91.0597,0.00052064,6.126e-05,0.0,0 STARLINK-5852,1 55933U 23037V   24121.58068118  .00006126  00000-0  52064-3 0  9992,2 55933  70.0010 194.3085 0003126 269.0204  91.0597 14.98339659 62400,6950.163,96.106,574.201,569.855,0.0
55933.0,STARLINK-5852,PAYLOAD,2024-05-01 10:45:55,14.98338269,0.0003085,70.0012,192.1207,270.298,89.7825,0.00012445,1.393e-05,0.0,0 STARLINK-5852,1 55933U 23037V   24122.44855925  .00001393  00000-0  12445-3 0  9998,2 55933  70.0012 192.1207 0003085 270.2980  89.7825 14.98338269 62878,6950.167,96.106,574.176,569.888,0.0
55933.0,STARLINK-5852,PAYLOAD,2024-05-02 12:24:04,14.98335993,0.0002923,70.0004,189.4284,270.5235,89.5589,-6.7276e-06,-1.73e-06,0.0,0 STARLINK-5852,1 55933U 23037V   24123.51671942 -.00000173  00000-0 -67276-5 0  9993,2 55933  70.0004 189.4284 0002923 270.5235  89.5589 14.98335993 63034,6950.174,96.107,574.071,570.008,0.0
55933.0,STARLINK-5852,PAYLOAD,2024-05-02 14:00:12,14.98335642,0.000295,70.0003,189.26,270.6282,89.4539,-1.6093e-05,-2.85e-06,0.0,0 STARLINK-5852,1 55933U 23037V   24123.58347938 -.00000285  00000-0 -16093-4 0  9999,2 55933  70.0003 189.2600 0002950 270.6282  89.4539 14.98335642 62704,6950.175,96.107,574.091,569.99,0.0
55933.0,STARLINK-5852,PAYLOAD,2024-05-03 12:26:04,14.98344235,0.0003046,69.9997,186.9025,269.7043,90.3767,0.00019177,2.197e-05,0.0,0 STARLINK-5852,1 55933U 23037V   24124.51810572  .00002197  00000-0  19177-3 0  9999,2 55933  69.9997 186.9025 0003046 269.7043  90.3767 14.98344235 63184,6950.149,96.106,574.131,569.897,0.0
55933.0,STARLINK-5852,PAYLOAD,2024-05-03 14:02:12,14.98344932,0.0003041,69.9997,186.7342,269.6657,90.4154,0.0002014,2.312e-05,0.0,0 STARLINK-5852,1 55933U 23037V   24124.58486491  .00002312  00000-0  20140-3 0  9996,2 55933  69.9997 186.7342 0003041 269.6657  90.4154 14.98344932 62857,6950.147,96.106,574.125,569.898,0.0
55933.0,STARLINK-5852,PAYLOAD,2024-05-03 22:02:53,14.98301266,0.0002696,70.0028,185.8918,275.2972,84.788,0.00051838,6.093e-05,0.0,0 STARLINK-5852,1 55933U 23037V   24124.91867919  .00006093  00000-0  51838-3 0  9999,2 55933  70.0028 185.8918 0002696 275.2972  84.7880 14.98301266 62903,6950.282,96.109,574.021,570.273,0.0
55933.0,STARLINK-5852,PAYLOAD,2024-05-04 04:27:26,14.98309363,0.0002731,70.003,185.2189,276.8427,83.2421,0.00034925,4.074e-05,0.0,0 STARLINK-5852,1 55933U 23037V   24125.18572391  .00004074  00000-0  34925-3 0  9991,2 55933  70.0030 185.2189 0002731 276.8427  83.2421 14.98309363 63285,6950.257,96.108,574.02,570.224,0.0
55933.0,STARLINK-5852,PAYLOAD,2024-05-04 14:04:14,14.98321341,0.0002947,70.0009,184.2096,269.244,90.8382,-0.00011198,-1.429e-05,0.0,0 STARLINK-5852,1 55933U 23037V   24125.58628313 -.00001429  00000-0 -11198-3 0  9991,2 55933  70.0009 184.2096 0002947 269.2440  90.8382 14.98321341 63344,6950.22,96.108,574.133,570.036,0.0
55933.0,STARLINK-5852,PAYLOAD,2024-05-05 12:30:07,14.98333771,0.0002962,69.9994,181.8532,268.4334,91.6485,1.7336e-05,1.14e-06,0.0,0 STARLINK-5852,1 55933U 23037V   24126.52092261  .00000114  00000-0  17336-4 0  9992,2 55933  69.9994 181.8532 0002962 268.4334  91.6485 14.98333771 63480,6950.181,96.107,574.105,569.988,0.0
55933.0,STARLINK-5852,PAYLOAD,2024-05-05 14:06:15,14.98334366,0.000297,69.9994,181.6849,268.4657,91.6162,2.8583e-05,2.48e-06,0.0,0 STARLINK-5852,1 55933U 23037V   24126.58768214  .00000248  00000-0  28583-4 0  9990,2 55933  69.9994 181.6849 0002970 268.4657  91.6162 14.98334366 63153,6950.179,96.107,574.109,569.98,0.0
